NORAD_CAT_ID,OBJECT_NAME,OBJECT_TYPE,EPOCH,MEAN_MOTION,ECCENTRICITY,INCLINATION,RA_OF_ASC_NODE,ARG_OF_PERICENTER,MEAN_ANOMALY,BSTAR,MEAN_MOTION_DOT,MEAN_MOTION_DDOT,TLE_LINE0,TLE_LINE1,TLE_LINE2,SEMIMAJOR_AXIS,PERIOD,APOGEE,PERIGEE,DECAYED
51856.0,STARLINK-3568,PAYLOAD,2024-06-28 13:37:42,15.08847258,0.0001235,53.2161,278.4799,94.2606,265.8527,0.00029072,4.343e-05,0.0,0 STARLINK-3568,1 51856U 22022E   24180.56785563  .00004343  00000-0  29072-3 0  9990,2 51856  53.2161 278.4799 0001235  94.2606 265.8527 15.08847258129587,6917.858,95.437,540.578,538.869,0.0
51856.0,STARLINK-3568,PAYLOAD,2024-06-28 18:23:51,15.08857395,0.0001276,53.2166,277.5852,88.7926,271.3213,0.00036983,5.606e-05,0.0,0 STARLINK-3568,1 51856U 22022E   24180.76656928  .00005606  00000-0  36983-3 0  9996,2 51856  53.2166 277.5852 0001276  88.7926 271.3213 15.08857395129611,6917.827,95.436,540.575,538.81,0.0
51856.0,STARLINK-3568,PAYLOAD,2024-06-29 13:28:31,15.08814425,0.0001268,53.2164,274.022,89.4446,270.6691,-0.00035117,-5.868e-05,0.0,0 STARLINK-3568,1 51856U 22022E   24181.56147170 -.00005868  00000-0 -35117-3 0  9999,2 51856  53.2164 274.0220 0001268  89.4446 270.6691 15.08814425129738,6917.959,95.439,540.701,538.946,0.0
51856.0,STARLINK-3568,PAYLOAD,2024-06-30 05:22:22,15.08833118,0.0001339,53.2166,271.0439,68.9852,291.1283,0.00019016,2.739e-05,0.0,0 STARLINK-3568,1 51856U 22022E   24182.22387120  .00002739  00000-0  19016-3 0  9996,2 51856  53.2166 271.0439 0001339  68.9852 291.1283 15.08833118129837,6917.901,95.438,540.693,538.84,0.0
51856.0,STARLINK-3568,PAYLOAD,2024-06-30 10:08:31,15.08847039,0.0001271,53.2161,270.1541,72.9443,287.1688,0.00058178,8.985e-05,0.0,0 STARLINK-3568,1 51856U 22022E   24182.42258818  .00008985  00000-0  58178-3 0  9990,2 51856  53.2161 270.1541 0001271  72.9443 287.1688 15.08847039129866,6917.859,95.437,540.603,538.845,0.0
51856.0,STARLINK-3568,PAYLOAD,2024-06-30 11:43:55,15.08850888,0.0001345,53.2153,269.8552,62.9994,297.1136,0.0014143,0.00022299,0.0,0 STARLINK-3568,1 51856U 22022E   24182.48883184  .00022299  00000-0  14143-2 0  9993,2 51856  53.2153 269.8552 0001345  62.9994 297.1136 15.08850888129872,6917.847,95.437,540.643,538.782,0.0
51856.0,STARLINK-3568,PAYLOAD,2024-07-01 05:13:08,15.08843606,0.0001458,53.2145,266.5839,83.7365,276.3793,0.00051389,7.901e-05,0.0,0 STARLINK-3568,1 51856U 22022E   24183.21746517  .00007901  00000-0  51389-3 0  9990,2 51856  53.2145 266.5839 0001458  83.7365 276.3793 15.08843606129983,6917.869,95.437,540.743,538.726,0.0
51856.0,STARLINK-3568,PAYLOAD,2024-07-01 13:10:04,15.08844318,0.0001232,53.2156,265.0984,70.3344,289.7781,0.0015418,0.00024338,0.0,0 STARLINK-3568,1 51856U 22022E   24183.54866527  .00024338  00000-0  15418-2 0  9995,2 51856  53.2156 265.0984 0001232  70.3344 289.7781 15.08844318130033,6917.867,95.437,540.584,538.88,0.0
51856.0,STARLINK-3568,PAYLOAD,2024-07-01 14:45:27,15.08846928,0.0001262,53.2156,264.8011,69.1901,290.9226,0.0014291,0.00022534,0.0,0 STARLINK-3568,1 51856U 22022E   24183.61490501  .00022534  00000-0  14291-2 0  9992,2 51856  53.2156 264.8011 0001262  69.1901 290.9226 15.08846928130047,6917.859,95.437,540.597,538.851,0.0
51856.0,STARLINK-3568,PAYLOAD,2024-07-02 05:03:56,15.08853409,0.0002827,53.2119,262.1237,79.708,280.4231,0.0011212,0.00017608,0.0,0 STARLINK-3568,1 51856U 22022E   24184.21106731  .00017608  00000-0  11212-2 0  9994,2 51856  53.2119 262.1237 0002827  79.7080 280.4231 15.08853409130132,6917.839,95.437,541.66,537.749,0.0
51856.0,STARLINK-3568,PAYLOAD,2024-07-02 09:50:05,15.08838211,0.0001337,53.2148,261.2318,87.9707,272.1438,0.00035993,5.445e-05,0.0,0 STARLINK-3568,1 51856U 22022E   24184.40978582  .00005445  00000-0  35993-3 0  9995,2 51856  53.2148 261.2318 0001337  87.9707 272.1438 15.08838211130160,6917.886,95.438,540.676,538.826,0.0
51856.0,STARLINK-3568,PAYLOAD,2024-07-02 14:36:14,15.08846623,0.000113,53.2146,260.3391,79.5364,280.5755,0.0006197,9.59e-05,0.0,0 STARLINK-3568,1 51856U 22022E   24184.60850492  .00009590  00000-0  61970-3 0  9995,2 51856  53.2146 260.3391 0001130  79.5364 280.5755 15.08846623130190,6917.86,95.437,540.507,538.943,0.0
51856.0,STARLINK-3568,PAYLOAD,2024-07-03 11:16:15,15.0884631,0.000123,53.2146,256.4723,82.9826,277.1305,0.00047587,7.295e-05,0.0,0 STARLINK-3568,1 51856U 22022E   24185.46962567  .00007295  00000-0  47587-3 0  9995,2 51856  53.2146 256.4723 0001230  82.9826 277.1305 15.08846310130328,6917.861,95.437,540.577,538.875,0.0
51856.0,STARLINK-3568,PAYLOAD,2024-07-03 14:27:01,15.0884804,0.0001204,53.2153,255.8775,84.0133,276.0996,0.00041653,6.349e-05,0.0,0 STARLINK-3568,1 51856U 22022E   24185.60210479  .00006349  00000-0  41653-3 0  9996,2 51856  53.2153 255.8775 0001204  84.0133 276.0996 15.08848040130349,6917.856,95.437,540.554,538.888,0.0
51856.0,STARLINK-3568,PAYLOAD,2024-07-04 04:45:30,15.08843672,0.0001217,53.215,253.201,83.0261,277.087,0.00017486,2.496e-05,0.0,0 STARLINK-3568,1 51856U 22022E   24186.19826503  .00002496  00000-0  17486-3 0  9998,2 51856  53.2150 253.2010 0001217  83.0261 277.0870 15.08843672130433,6917.869,95.437,540.576,538.892,0.0
51856.0,STARLINK-3568,PAYLOAD,2024-07-04 14:17:49,15.08838411,0.0001238,53.2161,251.4168,89.8462,270.2672,4.6302e-05,4.49e-06,0.0,0 STARLINK-3568,1 51856U 22022E   24186.59570730  .00000449  00000-0  46302-4 0  9996,2 51856  53.2161 251.4168 0001238  89.8462 270.2672 15.08838411130495,6917.885,95.438,540.607,538.894,0.0
51856.0,STARLINK-3568,PAYLOAD,2024-07-05 10:57:49,15.08839774,0.0001183,53.2165,247.5508,89.8915,270.2213,4.7132e-05,4.62e-06,0.0,0 STARLINK-3568,1 51856U 22022E   24187.45682698  .00000462  00000-0  47132-4 0  9996,2 51856  53.2165 247.5508 0001183  89.8915 270.2213 15.08839774130624,6917.881,95.438,540.564,538.928,0.0
51856.0,STARLINK-3568,PAYLOAD,2024-07-05 20:30:08,15.08846788,0.0001231,53.2169,245.7665,90.8543,269.259,9.9434e-05,1.295e-05,0.0,0 STARLINK-3568,1 51856U 22022E   24187.85426074  .00001295  00000-0  99434-4 0  9991,2 51856  53.2169 245.7665 0001231  90.8543 269.2590 15.08846788130680,6917.86,95.437,540.576,538.873,0.0
51856.0,STARLINK-3568,PAYLOAD,2024-07-06 04:27:04,15.0883316,0.0001406,53.219,244.2856,96.1823,263.9329,9.3606e-05,1.202e-05,0.0,0 STARLINK-3568,1 51856U 22022E   24188.18547092  .00001202  00000-0  93606-4 0  9995,2 51856  53.2190 244.2856 0001406  96.1823 263.9329 15.08833160130731,6917.901,95.438,540.739,538.794,0.0
51856.0,STARLINK-3568,PAYLOAD,2024-07-06 10:48:37,15.08832755,0.0001499,53.2185,243.0954,99.1874,260.9288,5.9461e-05,6.58e-06,0.0,0 STARLINK-3568,1 51856U 22022E   24188.45043234  .00000658  00000-0  59461-4 0  9999,2 51856  53.2185 243.0954 0001499  99.1874 260.9288 15.08832755130776,6917.903,95.438,540.805,538.731,0.0
51856.0,STARLINK-3568,PAYLOAD,2024-07-06 20:20:55,15.08839273,0.0001528,53.2188,241.311,99.0027,261.1138,3.5179e-05,2.72e-06,0.0,0 STARLINK-3568,1 51856U 22022E   24188.84786919  .00000272  00000-0  35179-4 0  9998,2 51856  53.2188 241.3110 0001528  99.0027 261.1138 15.08839273130832,6917.883,95.438,540.805,538.691,0.0
51856.0,STARLINK-3568,PAYLOAD,2024-07-07 09:04:00,15.08838349,0.0001656,53.2188,238.9324,105.9689,254.1485,6.8975e-05,8.1e-06,0.0,0 STARLINK-3568,1 51856U 22022E   24189.37778920  .00000810  00000-0  68975-4 0  9998,2 51856  53.2188 238.9324 0001656 105.9689 254.1485 15.08838349130913,6917.885,95.438,540.896,538.605,0.0
51856.0,STARLINK-3568,PAYLOAD,2024-07-08 12:05:34,15.08838937,0.0001403,53.2169,233.8735,87.3062,272.8091,8.1074e-05,1.003e-05,0.0,0 STARLINK-3568,1 51856U 22022E   24190.50387007  .00001003  00000-0  81074-4 0  9997,2 51856  53.2169 233.8735 0001403  87.3062 272.8091 15.08838937131082,6917.884,95.438,540.719,538.778,0.0
51856.0,STARLINK-3568,PAYLOAD,2024-07-08 20:02:29,15.088458,0.0001426,53.217,232.3867,84.5548,275.5606,7.9518e-05,9.78e-06,0.0,0 STARLINK-3568,1 51856U 22022E   24190.83506551  .00000978  00000-0  79518-4 0  9990,2 51856  53.2170 232.3867 0001426  84.5548 275.5606 15.08845800131132,6917.863,95.437,540.714,538.741,0.0
51856.0,STARLINK-3568,PAYLOAD,2024-07-09 11:56:20,15.08844285,0.0001311,53.2161,229.4119,90.658,269.4562,8.0985e-05,1.001e-05,0.0,0 STARLINK-3568,1 51856U 22022E   24191.49746521  .00001001  00000-0  80985-4 0  9994,2 51856  53.2161 229.4119 0001311  90.6580 269.4562 15.08844285131236,6917.867,95.437,540.639,538.825,0.0
51856.0,STARLINK-3568,PAYLOAD,2024-07-10 08:36:22,15.0883852,0.0001271,53.2159,225.5459,98.7916,261.3221,3.3851e-05,2.51e-06,0.0,0 STARLINK-3568,1 51856U 22022E   24192.35858943  .00000251  00000-0  33851-4 0  9998,2 51856  53.2159 225.5459 0001271  98.7916 261.3221 15.08838520131366,6917.885,95.438,540.629,538.871,0.0
51856.0,STARLINK-3568,PAYLOAD,2024-07-11 05:16:22,15.08857723,0.0001444,53.2159,221.6799,88.5884,271.5274,-0.00021451,-3.702e-05,0.0,0 STARLINK-3568,1 51856U 22022E   24193.21970336 -.00003702  00000-0 -21451-3 0  9993,2 51856  53.2159 221.6799 0001444  88.5884 271.5274 15.08857723131494,6917.826,95.436,540.69,538.692,0.0
51856.0,STARLINK-3568,PAYLOAD,2024-07-11 08:27:09,15.08841314,0.0001355,53.2159,221.0851,96.0691,264.0455,2.1814e-05,5.9e-07,0.0,0 STARLINK-3568,1 51856U 22022E   24193.35218809  .00000059  00000-0  21814-4 0  9992,2 51856  53.2159 221.0851 0001355  96.0691 264.0455 15.08841314131518,6917.876,95.437,540.679,538.804,0.0
51856.0,STARLINK-3568,PAYLOAD,2024-07-12 08:17:56,15.08837097,0.0001281,53.2156,216.626,92.3138,267.8001,5.3275e-05,5.6e-06,0.0,0 STARLINK-3568,1 51856U 22022E   24194.34579075  .00000560  00000-0  53275-4 0  9990,2 51856  53.2156 216.6260 0001281  92.3138 267.8001 15.08837097131669,6917.889,95.438,540.64,538.868,0.0
51856.0,STARLINK-3568,PAYLOAD,2024-07-13 08:08:43,15.0883999,0.0001285,53.2156,212.1663,91.3255,268.7884,4.2643e-05,3.91e-06,0.0,0 STARLINK-3568,1 51856U 22022E   24195.33939087  .00000391  00000-0  42643-4 0  9992,2 51856  53.2156 212.1663 0001285  91.3255 268.7884 15.08839990131810,6917.88,95.438,540.634,538.856,0.0
